2 58413  43.0012 355.1967 0002570 208.8505  16.6817 15.26989400  5964
STARLINK-30922          
1 58414U 23180N   24015.98385357  .00007197  00000+0  37986-3 0  9995
2 58414  43.0022 358.8568 0000810 275.2485  84.8269 15.15962705  9658
STARLINK-30949          
1 58415U 23180P   24016.14053916  .00053794  00000+0  27430-2 0  9994
2 58415  43.0014 357.4317 0001196 259.8963 100.1749 15.15983381  9685
STARLINK-30967          
1 58416U 23180Q   24016.08146291  .00025787  00000+0  13286-2 0  9992
2 58416  43.0020 357.8646 0000593 257.1897 102.8884 15.15919177  9668
STARLINK-30955          
1 58417U 23180R   24016.09741899  .00058092  00000+0  29600-2 0  9991
2 58417  43.0028 357.9749 0000452 241.7532 118.3269 15.15976652  9661
STARLINK-30895          
1 58418U 23180S   24016.10879062  .00042171  00000+0  21570-2 0  9997
2 58418  43.0015 358.0727 0001383 212.9475 147.1286 15.15972537  9562
STARLINK-30917          
1 58419U 23180T   24015.91667824  .00075255  00000+0  52514-2 0  9998
2 58419  43.0002 354.9288 0001255 226.7262 114.5632 15.04453935  5979
STARLINK-30899          
1 58420U 23180U   24016.17012946  .00035138  00000+0  18004-2 0  9990
2 58420  43.0021 357.6725 0001076 231.1171 128.9581 15.15984083  9586
STARLINK-30902          
1 58421U 23180V   24016.08603576  .00019243  00000+0  99409-3 0  9994
2 58421  43.0022 357.8992 0000808 266.0104  94.0650 15.15963782  9573
STARLINK-30912          
1 58422U 23180W   24016.09968904  .00047154  00000+0  24092-2 0  9992
2 58422  43.0021 358.0029 0001496 213.5713 146.5040 15.15966981  9912
STARLINK-30900          
1 58423U 23180X   24016.04504401  .00013182  00000+0  68533-3 0  9999
2 58423  43.0014 357.5621 0001124 283.4273  76.6449 15.15960659  9576
STARLINK-30908          
1 58424U 23180Y   24016.07827325 -.00013735  00000+0 -51686-3 0  9993
2 58424  43.0005 354.3718 0001365 241.1762 118.8952 15.25868199  9700
STARLINK-30869          
1 58437U 23183A   24016.25001157 -.02125062  00000+0 -13394+0 0  9996
2 58437  42.9995 340.5567 0001552 279.5143  19.2962 15.11921509  8888
STARLINK-30969          
1 58438U 23183B   24015.91667824 -.02094173  00000+0 -12751+0 0  9992
2 58438  42.9992 342.4184 0001292 257.9532  13.5941 15.13698527  8826
STARLINK-30951          
1 58439U 23183C   24015.91667824 -.02092219  00000+0 -12490+0 0  9992
2 58439  43.0000 342.3434 0001249 255.5975  47.3441 15.14389394  8834
STARLINK-30950          
1 58440U 23183D   24015.91667824  .00166861  00000+0  14231-2 0  9993
2 58440  42.9999 334.2405 0006206 178.8577 219.6029 15.68225287  6059
STARLINK-30942          
1 58441U 23183E   24015.91667824 -.02093043  00000+0 -12220+0 0  9992
2 58441  43.0001 342.2669 0001324 262.9669  71.7409 15.15169410  8834
STARLINK-30959          
1 58442U 23183F   24015.91667824 -.02094292  00000+0 -11935+0 0  9992
2 58442  43.0004 342.2206 0001760 268.5440  85.4968 15.16011704  8833
STARLINK-30971          
1 58443U 23183G   24015.93235392  .00002461  00000+0  13770-3 0  9992
2 58443  43.0007 342.3124 0001362 232.7225 127.3498 15.15982783  8814
STARLINK-30963          
1 58444U 23183H   24015.99597170  .00020580  00000+0  10621-2 0  9997
2 58444  43.0002 341.9269 0001571 222.2686 137.8041 15.15965655  8844
STARLINK-30961          
1 58445U 23183J   24016.12546680  .00001428  00000+0  84951-4 0  9993
2 58445  43.0002 341.1782 0001678 224.4262 135.6451 15.15974148  8869
STARLINK-30975          
1 58446U 23183K   24016.25001157  .00072138  00000+0  53122-2 0  9993
2 58446  42.9995 340.6057 0002054 262.7617   6.9052 15.02451800  8875
STARLINK-30976          
1 58447U 23183L   24015.96952630  .00066059  00000+0  25110-2 0  9993
2 58447  43.0021 342.6137 0001135 238.7037 121.3703 15.25931108  8837
STARLINK-30926          
1 58448U 23183M   24016.25001157  .00019920  00000+0  14121-2 0  9991
2 58448  43.0005 340.0478 0001201 264.2638 228.4612 15.04443992  8884
STARLINK-30943          
1 58449U 23183N   24016.25001157 -.00574249  00000+0 -63838-2 0  9993
2 58449  43.0008 328.0907 0001922 260.8673  86.2428 15.63820853  9013
STARLINK-30946          
1 58450U 23183P   24016.25001157 -.02121096  00000+0 -15008+0 0  9998
2 58450  42.9991 340.7389 0001150 271.6816 309.1125 15.07752768  8883
STARLINK-30944          
1 58451U 23183Q   24015.91667824 -.02093759  00000+0 -11398+0 0  9992
2 58451  43.0006 342.1613 0001354 258.0021 119.9522 15.17598942  8704
STARLINK-30928          
1 58452U 23183R   24015.91667824 -.02096951  00000+0 -10776+0 0  9999
2 58452  43.0005 342.1038 0001502 266.7268 135.1711 15.19579176  5874
STARLINK-30957          
1 58453U 23183S   24015.91667824  .00025460  00000+0  17981-2 0  9991
2 58453  43.0002 342.7408 0001944 264.8620 227.1536 15.04469426  8836
STARLINK-30966          
1 58454U 23183T   24016.25001157 -.00610072  00000+0 -45090-1 0  9993
2 58454  43.0002 340.8345 0001904 269.2053 268.6924 15.04898995  8873
STARLINK-30935          
1 58455U 23183U   24015.91667824 -.01950000  00000+0 -14110+0 0  9991
2 58455  43.0007 342.2233 0001568 293.6584  55.6924 15.07224989  8836
STARLINK-30960          
1 58456U 23183V   24016.25001157 -.02189680  00000+0 -14932+0 0  9992
2 58456  43.0004 340.6829 0001097 270.4001 330.4700 15.09206078  8872
STARLINK-30958          
1 58457U 23183W   24015.91667824  .00048138  00000+0  33751-2 0  9995
2 58457  43.0007 342.1357 0001338 252.0161 132.2349 15.04478698  8714
STARLINK-30962          
1 58458U 23183X   24015.91667824  .00086761  00000+0  43992-2 0  9998
2 58458  43.0010 342.2802 0001416 227.5855  96.5885 15.15962177  6053
STARLINK-30977          
1 58459U 23183Y   24015.27574584  .00064441  00000+0  32732-2 0  9999
2 58459  43.0003 345.9821 0001490 242.8754 117.1941 15.16041969  8713
STARLINK-30947          
1 58473U 23186A   24015.99414284  .00066710  00000+0  25316-2 0  9998
2 58473  43.0007  12.6295 0001375 219.9996 140.0754 15.25980950  7832
STARLINK-30995          
1 58474U 23186B   24016.12282890  .00084324  00000+0  31955-2 0  9998
2 58474  43.0013  11.8754 0000844 228.4905 131.5874 15.25922049  7851
STARLINK-30941          
1 58475U 23186C   24016.05507513 -.00011809  00000+0 -44277-3 0  9995
2 58475  43.0010  12.2248 0001355 239.7030 120.3687 15.25877487  7802
STARLINK-30980          
1 58476U 23186D   24016.11829562  .00076847  00000+0  29137-2 0  9992
2 58476  43.0011  11.8391 0000798 257.1628 102.9134 15.25948011  7855
STARLINK-30965          
1 58477U 23186E   24015.41908076  .00053279  00000+0  11979-2 0  9992
2 58477  43.0002   9.0301 0000746 138.5290 221.5624 15.42543681  7873
STARLINK-30990          
1 58478U 23186F   24016.11604479  .00054662  00000+0  20843-2 0  9998
2 58478  43.0012  11.8201 0001005 255.5264 104.5476 15.25905809  7965
STARLINK-30974          
1 58479U 23186G   24015.91667824 -.00125566  00000+0 -39146-3 0  9990
2 58479  42.9945 356.8056 0001438 265.5188 140.4761 15.90783230  6032
STARLINK-30984          
1 58480U 23186H   24016.01888575  .00054472  00000+0  20741-2 0  9997
2 58480  42.9973  11.9404 0000875 185.0550 175.0292 15.25954458  7858
STARLINK-30956          
1 58481U 23186J   24016.10639431  .00054524  00000+0  41772-3 0  9999
2 58481  43.0000   2.0878 0004011 306.2357  53.8140 15.71279278  7964
STARLINK-30997          
1 58482U 23186K   24016.00053658  .00060517  00000+0  23053-2 0  9990
2 58482  42.9997  10.0701 0002094 250.2632 109.7993 15.25895906  7862
STARLINK-30994          
1 58483U 23186L   24015.99461117  .00025999  00000+0  47447-3 0  9990
2 58483  43.0010   6.5274 0000471 266.4711  93.6094 15.48919463  7852
STARLINK-30991          
1 58484U 23186M   24016.01664750  .00088450  00000+0  33503-2 0  9991
2 58484  42.9986  11.9232 0003110 204.8302 155.2399 15.25911795  7849
STARLINK-30979          
1 58485U 23186N   24016.11151134  .00056763  00000+0  21624-2 0  9993
2 58485  43.0010  11.7835 0001689 234.5414 125.5279 15.25921041  7853
STARLINK-31005          
1 58486U 23186P   24016.04379679  .00082539  00000+0  31312-2 0  9997
2 58486  43.0013  12.1354 0000791 248.7136 111.3630 15.25897111  7842
STARLINK-30987          
1 58487U 23186Q   24016.04154738  .00090157  00000+0  34143-2 0  9995
2 58487  43.0012  12.1177 0000529 216.4853 143.5962 15.25911107  7849
STARLINK-31000          
1 58488U 23186R   24016.10472929  .00090682  00000+0  34327-2 0  9995
2 58488  43.0018  11.7303 0001482 233.0825 126.9890 15.25922385  7806
STARLINK-30993          
1 58489U 23186S   24016.10246730  .00015706  00000+0  60902-3 0  9998
2 58489  43.0001  11.7097 0000607 259.1339 100.9444 15.25908001  7857
STARLINK-30978          
1 58490U 23186T   24016.03475302  .00082261  00000+0  31191-2 0  9998
2 58490  42.9997  12.0631 0000969 202.0692 158.0118 15.25915186  8067
STARLINK-30953          
1 58491U 23186U   24016.12942520  .00107654  00000+0  38778-2 0  9992
2 58491  43.0000   9.3165 0001713 161.0762 199.0154 15.27470052  7835
STARLINK-30986          
1 58492U 23186V   24016.02795994  .00076853  00000+0  29169-2 0  9993
2 58492  42.9980  12.0105 0000743 244.9251 115.1523 15.25914419  7840
STARLINK-30985          
1 58493U 23186W   24016.02570287  .00086727  00000+0  32884-2 0  9999
2 58493  42.9980  11.9930 0000778 276.1084  83.9678 15.25889999  7841
STARLINK-30981          
1 58494U 23186X   24016.08886749 -.00002310  00000+0 -78152-4 0  9997
2 58494  42.9981  11.6079 0009521 131.7112 228.4555 15.25936628  7850
STARLINK-31002          
1 58495U 23186Y   24016.02115727  .00081632  00000+0  30935-2 0  9990
2 58495  42.9975  11.9590 0000756 269.8977  90.1787 15.25937194  8051
STARLINK-31026          
1 58508U 23191A   24016.00206978  .00063204  00000+0  24027-2 0  9998
2 58508  42.9996  56.3031 0001117 251.8637 108.2093 15.25946745  7443
STARLINK-31020          
1 58509U 23191B   24016.13526479 -.00000816  00000+0 -21373-4 0  9999
2 58509  42.9987  55.5829 0000987 293.8522  66.2226 15.25899942  7349
